{"type": "FeatureCollection", "features": [ {"type": "Feature", "properties": {"norad_id": 42969, "name": "SENTINEL-5P", "group": "resource", "lat": -65.89356347478859, "lon": 85.61547976761169, "alt_km": 834.8339867229197, "timestamp": "2025-12-13T05:42:57.154629+00:00", "meta": {"OBJECT_NAME": "SENTINEL-5P", "OBJECT_ID": "2017-064A", "EPOCH": "2025-12-12T06:33:44.029728", "MEAN_MOTION": 14.19517396, "ECCENTRICITY": 9.504e-05, "INCLINATION": 98.7785, "RA_OF_ASC_NODE": 284.8617, "ARG_OF_PERICENTER": 88.773, "MEAN_ANOMALY": 271.3555, "EPHEMERIS_TYPE": 0, "CLASSIFICATION_TYPE": "U", "NORAD_CAT_ID": 42969, "ELEMENT_SET_NO": 999, "REV_AT_EPOCH": 42304, "BSTAR": 9.4414653e-05, "MEAN_MOTION_DOT": 1.55e-06, "MEAN_MOTION_DDOT": 0}, "tle": {"line1": "1 42969U 17064A   25346.27342627  .00000155  00000+0  94415-4 0  9998", "line2": "2 42969  98.7785 284.8617 0000950  88.7730 271.3555 14.19517396423046"}}, "geometry": {"type": "Point", "coordinates": [85.61547976761169, -65.89356347478859]}}, {"type": "Feature", "properties": {"norad_id": 42987, "name": "SKYSAT-C11", "group": "resource", "lat": -49.720772612913464, "lon": -64.09768296748592, "alt_km": 431.5049423900591, "timestamp": "2025-12-13T05:42:57.154640+00:00", "meta": {"OBJECT_NAME": "SKYSAT-C11", "OBJECT_ID": "2017-068A", "EPOCH": "2025-12-12T05:26:40.805088", "MEAN_MOTION": 15.47412785, "ECCENTRICITY": 9.576e-05, "INCLINATION": 97.414, "RA_OF_ASC_NODE": 123.7054, "ARG_OF_PERICENTER": 102.6858, "MEAN_ANOMALY": 257.4499, "EPHEMERIS_TYPE": 0, "CLASSIFICATION_TYPE": "U", "NORAD_CAT_ID": 42987, "ELEMENT_SET_NO": 999, "REV_AT_EPOCH": 45423, "BSTAR": 0.00060118187, "MEAN_MOTION_DOT": 0.0003077, "MEAN_MOTION_DDOT": 0}, "tle": {"line1": "1 42987U 17068A   25346.22686117  .00030770  00000+0  60118-3 0  9990", "line2": "2 42987  97.4140 123.7054 0000957 102.6858 257.4499 15.47412785454232"}}, "geometry": {"type": "Point", "coordinates": [-64.09768296748592, -49.720772612913464]}}, {"type": "Feature", "properties": {"norad_id": 42988, "name": "SKYSAT-C10", "group": "resource", "lat": -74.96019736778581, "lon": 147.12807056455617, "alt_km": 480.6104022473255, "timestamp": "2025-12-13T05:42:57.154650+00:00", "meta": {"OBJECT_NAME": "SKYSAT-C10", "OBJECT_ID": "2017-068B", "EPOCH": "2025-12-12T06:32:18.310560", "MEAN_MOTION": 15.3204752, "ECCENTRICITY": 0.00053447, "INCLINATION": 97.4255, "RA_OF_ASC_NODE": 117.1218, "ARG_OF_PERICENTER": 104.7336, "MEAN_ANOMALY": 255.4499, "EPHEMERIS_TYPE": 0, "CLASSIFICATION_TYPE": "U", "NORAD_CAT_ID": 42988, "ELEMENT_SET_NO": 999, "REV_AT_EPOCH": 45372, "BSTAR": 0.00053154411, "MEAN_MOTION_DOT": 0.00016392, "MEAN_MOTION_DDOT": 0}, "tle": {"line1": "1 42988U 17068B   25346.27243415  .00016392  00000+0  53154-3 0  9992", "line2": "2 42988  97.4255 117.1218 0005344 104.7336 255.4499 15.32047520453724"}}, "geometry": {"type": "Point", "coordinates": [147.12807056455617, -74.96019736778581]}}, {"type": "Feature", "properties": {"norad_id": 42989, "name": "SKYSAT-C9", "group": "resource", "lat": 41.55406840967091, "lon": -55.87222923208687, "alt_km": 450.0375869042555, "timestamp": "2025-12-13T05:42:57.154661+00:00", "meta": {"OBJECT_NAME": "SKYSAT-C9", "OBJECT_ID": "2017-068C", "EPOCH": "2025-12-12T07:13:47.624160", "MEAN_MOTION": 15.36032982, "ECCENTRICITY": 0.00106381, "INCLINATION": 97.4186, "RA_OF_ASC_NODE": 116.5513, "ARG_OF_PERICENTER": 88.8897, "MEAN_ANOMALY": 271.3566, "EPHEMERIS_TYPE": 0, "CLASSIFICATION_TYPE": "U", "NORAD_CAT_ID": 42989, "ELEMENT_SET_NO": 999, "REV_AT_EPOCH": 45401, "BSTAR": 0.00055011012, "MEAN_MOTION_DOT": 0.00019281, "MEAN_MOTION_DDOT": 0}, "tle": {"line1": "1 42989U 17068C   25346.30124565  .00019281  00000+0  55011-3 0  9995", "line2": "2 42989  97.4186 116.5513 0010638  88.8897 271.3566 15.36032982454010"}}, "geometry": {"type": "Point", "coordinates": [-55.87222923208687, 41.55406840967091]}}, {"type": "Feature", "properties": {"norad_id": 42990, "name": "SKYSAT-C8", "group": "resource", "lat": 74.97708125223224, "lon": -33.67617880980542, "alt_km": 460.42825633688153, "timestamp": "2025-12-13T05:42:57.154671+00:00", "meta": {"OBJECT_NAME": "SKYSAT-C8", "OBJECT_ID": "2017-068D", "EPOCH": "2025-12-12T07:20:05.443584", "MEAN_MOTION": 15.32905286, "ECCENTRICITY": 0.00016265, "INCLINATION": 97.4275, "RA_OF_ASC_NODE": 116.3032, "ARG_OF_PERICENTER": 350.7763, "MEAN_ANOMALY": 9.3449, "EPHEMERIS_TYPE": 0, "CLASSIFICATION_TYPE": "U", "NORAD_CAT_ID": 42990, "ELEMENT_SET_NO": 999, "REV_AT_EPOCH": 45364, "BSTAR": 0.00052846279, "MEAN_MOTION_DOT": 0.00016735, "MEAN_MOTION_DDOT": 0}, "tle": {"line1": "1 42990U 17068D   25346.30561856  .00016735  00000+0  52846-3 0  9999", "line2": "2 42990  97.4275 116.3032 0001626 350.7763   9.3449 15.32905286453644"}}, "geometry": {"type": "Point", "coordinates": [-33.67617880980542, 74.97708125223224]}}, {"type": "Feature", "properties": {"norad_id": 42991, "name": "SKYSAT-C7", "group": "resource", "lat": -42.34216066441693, "lon": 125.10931579883741, "alt_km": 476.2024518855005, "timestamp": "2025-12-13T05:42:57.154682+00:00", "meta": {"OBJECT_NAME": "SKYSAT-C7", "OBJECT_ID": "2017-068E", "EPOCH": "2025-12-11T20:59:22.535232", "MEAN_MOTION": 15.32294521, "ECCENTRICITY": 0.0007687, "INCLINATION": 97.4285, "RA_OF_ASC_NODE": 116.9127, "ARG_OF_PERICENTER": 59.5995, "MEAN_ANOMALY": 300.6005, "EPHEMERIS_TYPE": 0, "CLASSIFICATION_TYPE": "U", "NORAD_CAT_ID": 42991, "ELEMENT_SET_NO": 999, "REV_AT_EPOCH": 45364, "BSTAR": 0.00051899, "MEAN_MOTION_DOT": 0.00016134, "MEAN_MOTION_DDOT": 0}, "tle": {"line1": "1 42991U 17068E   25345.87456638  .00016134  00000+0  51899-3 0  9992", "line2": "2 42991  97.4285 116.9127 0007687  59.5995 300.6005 15.32294521453649"}}, "geometry": {"type": "Point", "coordinates": [125.10931579883741, -42.34216066441693]}}, {"type": "Feature", "properties": {"norad_id": 42992, "name": "SKYSAT-C6", "group": "resource", "lat": 71.30261544373232, "lon": 96.03181716408885, "alt_km": 460.9277473944676, "timestamp": "2025-12-13T05:42:57.154692+00:00", "meta": {"OBJECT_NAME": "SKYSAT-C6", "OBJECT_ID": "2017-068F", "EPOCH": "2025-12-12T07:26:44.975328", "MEAN_MOTION": 15.31474953, "ECCENTRICITY": 0.00051986, "INCLINATION": 97.4317, "RA_OF_ASC_NODE": 117.7887, "ARG_OF_PERICENTER": 83.6363, "MEAN_ANOMALY": 276.547, "EPHEMERIS_TYPE": 0, "CLASSIFICATION_TYPE": "U", "NORAD_CAT_ID": 42992, "ELEMENT_SET_NO": 999, "REV_AT_EPOCH": 45369, "BSTAR": 0.00053031604, "MEAN_MOTION_DOT": 0.00016064, "MEAN_MOTION_DDOT": 0}, "tle": {"line1": "1 42992U 17068F   25346.31024277  .00016064  00000+0  53032-3 0  9996", "line2": "2 42992  97.4317 117.7887 0005198  83.6363 276.5470 15.31474953453690"}}, "geometry": {"type": "Point", "coordinates": [96.03181716408885, 71.30261544373232]}}, {"type": "Feature", "properties": {"norad_id": 43111, "name": "CARTOSAT-2F", "group": "resource", "lat": 22.307268095519866, "lon": -132.06291818134238, "alt_km": 507.12150302282043, "timestamp": "2025-12-13T05:42:57.154703+00:00", "meta": {"OBJECT_NAME": "CARTOSAT-2F", "OBJECT_ID": "2018-004A", "EPOCH": "2025-12-12T08:28:34.493664", "MEAN_MOTION": 15.19271482, "ECCENTRICITY": 0.00010362, "INCLINATION": 97.4318, "RA_OF_ASC_NODE": 43.9964, "ARG_OF_PERICENTER": 138.9974, "MEAN_ANOMALY": 221.1339, "EPHEMERIS_TYPE": 0, "CLASSIFICATION_TYPE": "U", "NORAD_CAT_ID": 43111, "ELEMENT_SET_NO": 999, "REV_AT_EPOCH": 43896, "BSTAR": 0.00037969757, "MEAN_MOTION_DOT": 7.943e-05, "MEAN_MOTION_DDOT": 0}, "tle": {"line1": "1 43111U 18004A   25346.35317701  .00007943  00000+0  37970-3 0  9991", "line2": "2 43111  97.4318  43.9964 0001036 138.9974 221.1339 15.19271482438961"}}, "geometry": {"type": "Point", "coordinates": [-132.06291818134238, 22.307268095519866]}}, {"type": "Feature", "properties": {"norad_id": 43259, "name": "GAOFEN-1 02", "group": "resource", "lat": -26.835442918809473, "lon": -139.0940430134405, "alt_km": 645.207680552202, "timestamp": "2025-12-13T05:42:57.154714+00:00", "meta": {"OBJECT_NAME": "GAOFEN-1 02", "OBJECT_ID": "2018-031A", "EPOCH": "2025-12-12T07:38:09.564864", "MEAN_MOTION": 14.76413889, "ECCENTRICITY": 0.00017311, "INCLINATION": 98.0803, "RA_OF_ASC_NODE": 44.1073, "ARG_OF_PERICENTER": 219.1812, "MEAN_ANOMALY": 140.9272, "EPHEMERIS_TYPE": 0, "CLASSIFICATION_TYPE": "U", "NORAD_CAT_ID": 43259, "ELEMENT_SET_NO": 999, "REV_AT_EPOCH": 41512, "BSTAR": 0.00024991178, "MEAN_MOTION_DOT": 1.685e-05, "MEAN_MOTION_DDOT": 0}, "tle": {"line1": "1 43259U 18031A   25346.31816626  .00001685  00000+0  24991-3 0  9996", "line2": "2 43259  98.0803  44.1073 0001731 219.1812 140.9272 14.76413889415127"}}, "geometry": {"type": "Point", "coordinates": [-139.0940430134405, -26.835442918809473]}}, {"type": "Feature", "properties": {"norad_id": 43260, "name": "GAOFEN-1 03", "group": "resource", "lat": -37.416863604606895, "lon": 51.143700067359624, "alt_km": 645.5774759770602, "timestamp": "2025-12-13T05:42:57.154724+00:00", "meta": {"OBJECT_NAME": "GAOFEN-1 03", "OBJECT_ID": "2018-031B", "EPOCH": "2025-12-12T07:06:56.539008", "MEAN_MOTION": 14.76435539, "ECCENTRICITY": 0.00020134, "INCLINATION": 98.08, "RA_OF_ASC_NODE": 43.9626, "ARG_OF_PERICENTER": 324.306, "MEAN_ANOMALY": 35.8014, "EPHEMERIS_TYPE": 0, "CLASSIFICATION_TYPE": "U", "NORAD_CAT_ID": 43260, "ELEMENT_SET_NO": 999, "REV_AT_EPOCH": 41511, "BSTAR": 0.00022369076, "MEAN_MOTION_DOT": 1.504e-05, "MEAN_MOTION_DDOT": 0}, "tle": {"line1": "1 43260U 18031B   25346.29648772  .00001504  00000+0  22369-3 0  9997", "line2": "2 43260  98.0800  43.9626 0002013 324.3060  35.8014 14.76435539415116"}}, "geometry": {"type": "Point", "coordinates": [51.143700067359624, -37.416863604606895]}}]}